[{"OBJECT_NAME":"STARLINK-34111","OBJECT_ID":"2025-102V","EPOCH":"2026-03-09T16:00:03.000096","MEAN_MOTION":14.98337597,"ECCENTRICITY":0.00037957,"INCLINATION":69.9997,"RA_OF_ASC_NODE":114.558,"ARG_OF_PERICENTER":273.595,"MEAN_ANOMALY":224.4802,"EPHEMERIS_TYPE":0,"CLASSIFICATION_TYPE":"U","NORAD_CAT_ID":64041,"ELEMENT_SET_NO":999,"REV_AT_EPOCH":563,"BSTAR":-0.0013533714,"MEAN_MOTION_DOT":-0.00016208,"MEAN_MOTION_DDOT":0},{"OBJECT_NAME":"ATLAS 28E DEB","OBJECT_ID":"1990-031G","EPOCH":"2026-03-09T13:30:42.820704","MEAN_MOTION":15.01077751,"ECCENTRICITY":0.00267601,"INCLINATION":90.3468,"RA_OF_ASC_NODE":293.9289,"ARG_OF_PERICENTER":41.2715,"MEAN_ANOMALY":319.0536,"EPHEMERIS_TYPE":0,"CLASSIFICATION_TYPE":"U","NORAD_CAT_ID":20575,"ELEMENT_SET_NO":999,"REV_AT_EPOCH":38014,"BSTAR":0.00040945673,"MEAN_MOTION_DOT":5.29e-5,"MEAN_MOTION_DDOT":0}]
